EPOCH,INCLINATION,ECCENTRICITY,BSTAR,TLE_LINE1,TLE_LINE2
2026-04-13T21:59:49.143264,97.6159,0.00190200,0.00051949000000,1 64157U 25112M   26103.91654101  .00006794  00000-0  51949-3 0  9990,2 64157  97.6159 156.2004 0019020 129.5599 230.7310 15.02096416 48600
2026-04-13T21:59:49.143264,97.6159,0.00190204,0.00051949365000,1 64157U 25112M   26103.91654101  .00006794  00000-0  51949-3 0  9990,2 64157  97.6159 156.2004 0019020 129.5599 230.7310 15.02096416 48600
2026-04-13T02:48:42.172992,97.6163,0.00190521,0.00070605940000,1 64157U 25112M   26103.11715478  .00009255  00000-0  70606-3 0  9993,2 64157  97.6163 155.4155 0019052 131.8392 228.4463 15.02083553 48482
2026-04-13T02:48:42.172128,97.6163,0.00190520,0.00070606000000,1 64157U 25112M   26103.11715477  .00009255  00000-0  70606-3 0  9992,2 64157  97.6163 155.4155 0019052 131.8392 228.4463 15.02083553 48482
2026-04-12T17:13:08.479200,97.6166,0.00190960,0.00069786000000,1 64157U 25112M   26102.71745925  .00009144  00000-0  69786-3 0  9992,2 64157  97.6166 155.0231 0019096 133.0392 227.2436 15.02072889 48429
2026-04-12T17:13:08.479200,97.6166,0.00190955,0.00069785846000,1 64157U 25112M   26102.71745925  .00009144  00000-0  69786-3 0  9992,2 64157  97.6166 155.0231 0019096 133.0392 227.2436 15.02072889 48429
2026-04-12T10:49:25.868640,97.6160,0.00190700,0.00064531000000,1 64157U 25112M   26102.45099385  .00008449  00000-0  64531-3 0  9995,2 64157  97.6160 154.7613 0019070 133.7751 226.5055 15.02066645 48388
2026-04-12T02:49:47.449056,97.6162,0.00190780,0.00086768000000,1 64157U 25112M   26102.11791029  .00011384  00000-0  86768-3 0  9990,2 64157  97.6162 154.4343 0019078 134.7701 225.5079 15.02061674 48338
2026-04-12T02:49:47.449056,97.6162,0.00190780,0.00086767670000,1 64157U 25112M   26102.11791029  .00011384  00000-0  86768-3 0  9990,2 64157  97.6162 154.4343 0019078 134.7701 225.5079 15.02061674 48338
2026-04-11T20:26:04.661376,97.6167,0.00191350,0.00090329000000,1 64157U 25112M   26101.85144284  .00011852  00000-0  90329-3 0  9993,2 64157  97.6167 154.1727 0019135 135.4576 224.8191 15.02053426 48296
2026-04-11T20:26:04.661376,97.6167,0.00191350,0.00090329144000,1 64157U 25112M   26101.85144284  .00011852  00000-0  90329-3 0  9993,2 64157  97.6167 154.1727 0019135 135.4576 224.8191 15.02053426 48296
2026-04-11T09:14:34.463040,97.6169,0.00191300,0.00089644000000,1 64157U 25112M   26101.38512110  .00011757  00000-0  89644-3 0  9990,2 64157  97.6169 153.7147 0019130 136.8559 223.4169 15.02037505 48223
2026-04-11T02:50:51.283104,97.6171,0.00191789,0.00099927008000,1 64157U 25112M   26101.11864911  .00013113  00000-0  99927-3 0  9993,2 64157  97.6171 153.4531 0019179 137.5928 222.6783 15.02030714 48184
2026-04-11T01:14:55.480128,97.6169,0.00191800,0.00102240000000,1 64157U 25112M   26101.05203102  .00013417  00000-0  10224-2 0  9994,2 64157  97.6169 153.3876 0019180 137.7874 222.4831 15.02028457 48178
2026-04-10T20:27:08.033184,97.6171,0.00192190,0.00129721070000,1 64157U 25112M   26100.85217631  .00017047  00000-0  12972-2 0  9998,2 64157  97.6171 153.1914 0019219 138.2366 222.0330 15.02024176 48148
2026-04-10T09:15:36.931104,97.6172,0.00192300,0.00121730000000,1 64157U 25112M   26100.38584411  .00015983  00000-0  12173-2 0  9999,2 64157  97.6172 152.7333 0019230 139.6532 220.6124 15.02005099 48072
2026-04-10T01:15:57.327840,97.6171,0.00192745,0.00106921380000,1 64157U 25112M   26100.05274685  .00014022  00000-0  10692-2 0  9999,2 64157  97.6171 152.4062 0019275 140.4560 219.8075 15.01990155 48022
2026-04-10T01:15:57.326976,97.6171,0.00192750,0.00106920000000,1 64157U 25112M   26100.05274684  .00014022  00000-0  10692-2 0  9998,2 64157  97.6171 152.4062 0019275 140.4560 219.8075 15.01990154 48021
2026-04-09T09:16:37.260768,97.6172,0.00192586,0.00113091600000,1 64157U 25112M   26099.38654237  .00014827  00000-0  11309-2 0  9996,2 64157  97.6172 151.7519 0019259 142.4873 217.7700 15.01966420 47921
2026-04-09T02:52:52.970592,97.6170,0.00192605,0.00103511470000,1 64157U 25112M   26099.12005753  .00013560  00000-0  10351-2 0  9990,2 64157  97.6170 151.4902 0019260 143.2518 217.0031 15.01955730 47886
2026-04-09T02:52:52.969728,97.6170,0.00192600,0.00103510000000,1 64157U 25112M   26099.12005752  .00013560  00000-0  10351-2 0  9999,2 64157  97.6170 151.4902 0019260 143.2518 217.0031 15.01955730 47886
2026-04-08T20:29:08.541312,97.6172,0.00192485,0.00109415200000,1 64157U 25112M   26098.85357108  .00014334  00000-0  10942-2 0  9999,2 64157  97.6172 151.2285 0019248 144.0467 216.2057 15.01946118 47843
2026-04-08T09:17:35.426976,97.6172,0.00192419,0.00125706780000,1 64157U 25112M   26098.38721559  .00016475  00000-0  12571-2 0  9990,2 64157  97.6172 150.7705 0019242 145.4180 214.8301 15.01929760 47777
2026-04-07T20:30:05.562720,97.6174,0.00192619,0.00129435410000,1 64157U 25112M   26097.85423105  .00016957  00000-0  12944-2 0  9996,2 64157  97.6174 150.2471 0019262 146.9253 213.3180 15.01908389 47697
2026-04-07T20:30:05.561856,97.6174,0.00192620,0.00129440000000,1 64157U 25112M   26097.85423104  .00016957  00000-0  12944-2 0  9995,2 64157  97.6174 150.2471 0019262 146.9253 213.3180 15.01908389 47697
2026-04-07T02:54:45.859104,97.6178,0.00192750,0.00167300000000,1 64157U 25112M   26097.12136411  .00021937  00000-0  16730-2 0  9998,2 64157  97.6178 149.5276 0019275 149.0736 211.1628 15.01883400 47586
2026-04-07T02:54:45.859104,97.6178,0.00192746,0.00167303710000,1 64157U 25112M   26097.12136411  .00021937  00000-0  16730-2 0  9998,2 64157  97.6178 149.5276 0019275 149.0736 211.1628 15.01883400 47586
2026-04-06T20:31:00.262560,97.6179,0.00193048,0.00164666890000,1 64157U 25112M   26096.85486415  .00021581  00000-0  16467-2 0  9991,2 64157  97.6179 149.2659 0019305 149.8316 210.4025 15.01868346 47546
2026-04-06T02:55:38.742816,97.6183,0.00193158,0.00186631490000,1 64157U 25112M   26096.12197619  .00024457  00000-0  18663-2 0  9991,2 64157  97.6183 148.5461 0019316 151.8529 208.3744 15.01836148 47432
2026-04-05T17:19:59.148768,97.6185,0.00193599,0.00180218080000,1 64157U 25112M   26095.72221237  .00023598  00000-0  18022-2 0  9994,2 64157  97.6185 148.1533 0019360 153.0457 207.1777 15.01814357 47377
2026-04-05T17:19:59.147904,97.6185,0.00193600,0.00180220000000,1 64157U 25112M   26095.72221236  .00023598  00000-0  18022-2 0  9993,2 64157  97.6185 148.1533 0019360 153.0457 207.1777 15.01814357 47377
2026-04-05T14:08:05.818272,97.6187,0.00193526,0.00177238270000,1 64157U 25112M   26095.58895623  .00023202  00000-0  17724-2 0  9994,2 64157  97.6187 148.0223 0019353 153.3486 206.8737 15.01808173 47350
2026-04-05T09:20:15.736992,97.6188,0.00193450,0.00198020000000,1 64157U 25112M   26095.38907103  .00025933  00000-0  19802-2 0  9991,2 64157  97.6188 147.8260 0019345 153.9270 206.2933 15.01799245 47325
2026-04-05T02:56:28.824576,97.6188,0.00193353,0.00191867120000,1 64157U 25112M   26095.12255584  .00025112  00000-0  19187-2 0  9997,2 64157  97.6188 147.5643 0019335 154.7362 205.4813 15.01783825 47287
2026-04-04T20:32:41.664192,97.6190,0.00193470,0.00186780000000,1 64157U 25112M   26094.85603778  .00024432  00000-0  18678-2 0  9996,2 64157  97.6190 147.3026 0019347 155.4975 204.7173 15.01767069 47243
2026-04-04T20:32:41.664192,97.6190,0.00193473,0.00186783420000,1 64157U 25112M   26094.85603778  .00024432  00000-0  18678-2 0  9996,2 64157  97.6190 147.3026 0019347 155.4975 204.7173 15.01767069 47243
2026-04-04T14:08:54.322368,97.6192,0.00193672,0.00223530540000,1 64157U 25112M   26094.58951762  .00029259  00000-0  22353-2 0  9992,2 64157  97.6192 147.0407 0019367 156.2192 203.9932 15.01752012 47209
2026-04-04T06:09:09.743328,97.6194,0.00193448,0.00302712150000,1 64157U 25112M   26094.25636277  .00039680  00000-0  30271-2 0  9994,2 64157  97.6194 146.7136 0019345 157.2483 202.9604 15.01731672 47154
2026-04-03T22:09:24.685632,97.6195,0.00193459,0.00321089480000,1 64157U 25112M   26093.92320238  .00042076  00000-0  32109-2 0  9999,2 64157  97.6195 146.3864 0019346 158.1927 202.0125 15.01704437 47106
2026-04-03T20:33:27.608256,97.6196,0.00193450,0.00307970000000,1 64157U 25112M   26093.85656954  .00040338  00000-0  30797-2 0  9998,2 64157  97.6196 146.3210 0019345 158.3961 201.8084 15.01697683 47094
2026-04-03T14:09:39.062880,97.6198,0.00193711,0.00275072200000,1 64157U 25112M   26093.59003545  .00035979  00000-0  27507-2 0  9991,2 64157  97.6198 146.0592 0019371 159.1343 201.0676 15.01673704 47051
2026-04-03T12:33:41.874912,97.6198,0.00193820,0.00277490000000,1 64157U 25112M   26093.52340133  .00036292  00000-0  27749-2 0  9998,2 64157  97.6198 145.9938 0019382 159.3271 200.8741 15.01667832 47041
2026-04-03T06:09:52.908768,97.6200,0.00193721,0.00309377290000,1 64157U 25112M   26093.25686237  .00040469  00000-0  30938-2 0  9991,2 64157  97.6200 145.7320 0019372 160.0968 200.1016 15.01646764 47004
2026-04-02T22:10:06.179232,97.6200,0.00193629,0.00332723990000,1 64157U 25112M   26092.92368263  .00043513  00000-0  33272-2 0  9997,2 64157  97.6200 145.4051 0019363 161.1312 199.0635 15.01618092 46956
2026-04-02T20:34:08.799456,97.6201,0.00193720,0.00319180000000,1 64157U 25112M   26092.85704629  .00041720  00000-0  31918-2 0  9992,2 64157  97.6201 145.3396 0019372 161.3174 198.8766 15.01609896 46949
2026-04-02T15:46:16.413888,97.6202,0.00193895,0.00218857090000,1 64157U 25112M   26092.65713442  .00028517  00000-0  21886-2 0  9995,2 64157  97.6202 145.1432 0019390 161.9654 198.2262 15.01584123 46915
2026-04-02T07:46:28.636320,97.6204,0.00193564,0.00230148670000,1 64157U 25112M   26092.32394255  .00029977  00000-0  23015-2 0  9993,2 64157  97.6204 144.8160 0019356 162.9961 197.1917 15.01559003 46863
2026-04-02T04:34:33.360096,97.6205,0.00193370,0.00221870000000,1 64157U 25112M   26092.19066389  .00028885  00000-0  22187-2 0  9998,2 64157  97.6205 144.6853 0019337 163.3677 196.8186 15.01550217 46849
